CCSDS_OMM_VERS = 2.0
CREATION_DATE  = 
ORIGINATOR     = 

OBJECT_NAME    = STARLINK-37139
OBJECT_ID      = 2026-057Z
CENTER_NAME    = EARTH
REF_FRAME      = TEME
TIME_SYSTEM    = UTC
MEAN_ELEMENT_THEORY = SGP/SGP4

EPOCH          = 2026-04-04T06:00:02.000160
MEAN_MOTION    = 15.85146937
ECCENTRICITY   = .00015321
INCLINATION    = 97.2735
RA_OF_ASC_NODE = 217.9033
ARG_OF_PERICENTER = 57.8970
MEAN_ANOMALY   = 328.2556

EPHEMERIS_TYPE = 0
CLASSIFICATION_TYPE = U
NORAD_CAT_ID   = 68317
ELEMENT_SET_NO = 999
REV_AT_EPOCH   = 312
BSTAR          = -.76962049E-2
MEAN_MOTION_DOT = -.1585779E-1
MEAN_MOTION_DDOT = 0

CCSDS_OMM_VERS = 2.0
CREATION_DATE  = 
ORIGINATOR     = 

OBJECT_NAME    = STARLINK-37113
OBJECT_ID      = 2026-057AA
CENTER_NAME    = EARTH
REF_FRAME      = TEME
TIME_SYSTEM    = UTC
MEAN_ELEMENT_THEORY = SGP/SGP4

EPOCH          = 2026-04-04T06:00:02.000160
MEAN_MOTION    = 15.85040761
ECCENTRICITY   = .00016735
INCLINATION    = 97.2731
RA_OF_ASC_NODE = 217.9074
ARG_OF_PERICENTER = 56.3009
MEAN_ANOMALY   = 339.0271

EPHEMERIS_TYPE = 0
CLASSIFICATION_TYPE = U
NORAD_CAT_ID   = 68318
ELEMENT_SET_NO = 999
REV_AT_EPOCH   = 337
BSTAR          = -.78228376E-2
MEAN_MOTION_DOT = -.1601526E-1
MEAN_MOTION_DDOT = 0

CCSDS_OMM_VERS = 2.0
CREATION_DATE  = 
ORIGINATOR     = 

OBJECT_NAME    = PROGRESS-MS 33
OBJECT_ID      = 2026-058A
CENTER_NAME    = EARTH
REF_FRAME      = TEME
TIME_SYSTEM    = UTC
MEAN_ELEMENT_THEORY = SGP/SGP4

EPOCH          = 2026-04-04T01:39:43.591392
MEAN_MOTION    = 15.48758130
ECCENTRICITY   = .00062512
INCLINATION    = 51.6326
RA_OF_ASC_NODE = 306.8840
ARG_OF_PERICENTER = 269.7954
MEAN_ANOMALY   = 90.2318

EPHEMERIS_TYPE = 0
CLASSIFICATION_TYPE = U
NORAD_CAT_ID   = 68319
ELEMENT_SET_NO = 999
REV_AT_EPOCH   = 125
BSTAR          = .22464475E-3
MEAN_MOTION_DOT = .11847E-3
MEAN_MOTION_DDOT = 0

CCSDS_OMM_VERS = 2.0
CREATION_DATE  = 
ORIGINATOR     = 

OBJECT_NAME    = STARLINK-36987
OBJECT_ID      = 2026-059A
CENTER_NAME    = EARTH
REF_FRAME      = TEME
TIME_SYSTEM    = UTC
MEAN_ELEMENT_THEORY = SGP/SGP4

EPOCH          = 2026-04-03T18:59:07.494144
MEAN_MOTION    = 15.81002444
ECCENTRICITY   = .00010714
INCLINATION    = 53.1593
RA_OF_ASC_NODE = 237.0928
ARG_OF_PERICENTER = 64.1086
MEAN_ANOMALY   = 296.0047

EPHEMERIS_TYPE = 0
CLASSIFICATION_TYPE = U
NORAD_CAT_ID   = 68321
ELEMENT_SET_NO = 999
REV_AT_EPOCH   = 194
BSTAR          = .24871082E-2
MEAN_MOTION_DOT = .524315E-2
MEAN_MOTION_DDOT = 0

CCSDS_OMM_VERS = 2.0
CREATION_DATE  = 
ORIGINATOR     = 

OBJECT_NAME    = STARLINK-37088
OBJECT_ID      = 2026-059B
CENTER_NAME    = EARTH
REF_FRAME      = TEME
TIME_SYSTEM    = UTC
MEAN_ELEMENT_THEORY = SGP/SGP4

EPOCH          = 2026-04-03T20:28:00.380352
MEAN_MOTION    = 15.81041274
ECCENTRICITY   = .00016297
INCLINATION    = 53.1589
RA_OF_ASC_NODE = 236.7654
ARG_OF_PERICENTER = 36.6236
MEAN_ANOMALY   = 323.4898

EPHEMERIS_TYPE = 0
CLASSIFICATION_TYPE = U
NORAD_CAT_ID   = 68322
ELEMENT_SET_NO = 999
REV_AT_EPOCH   = 195
BSTAR          = .31721923E-2
MEAN_MOTION_DOT = .682732E-2
MEAN_MOTION_DDOT = 0

CCSDS_OMM_VERS = 2.0
CREATION_DATE  = 
ORIGINATOR     = 

OBJECT_NAME    = STARLINK-36983
OBJECT_ID      = 2026-059C
CENTER_NAME    = EARTH
REF_FRAME      = TEME
TIME_SYSTEM    = UTC
MEAN_ELEMENT_THEORY = SGP/SGP4

EPOCH          = 2026-04-03T18:58:02.887680
MEAN_MOTION    = 15.80989623
ECCENTRICITY   = .0001107
INCLINATION    = 53.1587
RA_OF_ASC_NODE = 237.0876
ARG_OF_PERICENTER = 81.1300
MEAN_ANOMALY   = 278.9848

EPHEMERIS_TYPE = 0
CLASSIFICATION_TYPE = U
NORAD_CAT_ID   = 68323
ELEMENT_SET_NO = 999
REV_AT_EPOCH   = 194
BSTAR          = .26003857E-2
MEAN_MOTION_DOT = .549536E-2
MEAN_MOTION_DDOT = 0

CCSDS_OMM_VERS = 2.0
CREATION_DATE  = 
ORIGINATOR     = 

OBJECT_NAME    = STARLINK-37164
OBJECT_ID      = 2026-059D
CENTER_NAME    = EARTH
REF_FRAME      = TEME
TIME_SYSTEM    = UTC
MEAN_ELEMENT_THEORY = SGP/SGP4

EPOCH          = 2026-04-03T20:26:55.430016
MEAN_MOTION    = 15.81060191
ECCENTRICITY   = .00012785
INCLINATION    = 53.1586
RA_OF_ASC_NODE = 236.7602
ARG_OF_PERICENTER = 82.1189
MEAN_ANOMALY   = 277.9979

EPHEMERIS_TYPE = 0
CLASSIFICATION_TYPE = U
NORAD_CAT_ID   = 68324
ELEMENT_SET_NO = 999
REV_AT_EPOCH   = 308
BSTAR          = .31666832E-2
MEAN_MOTION_DOT = .682125E-2
MEAN_MOTION_DDOT = 0

CCSDS_OMM_VERS = 2.0
CREATION_DATE  = 
ORIGINATOR     = 

OBJECT_NAME    = STARLINK-36309
OBJECT_ID      = 2026-059E
CENTER_NAME    = EARTH
REF_FRAME      = TEME
TIME_SYSTEM    = UTC
MEAN_ELEMENT_THEORY = SGP/SGP4

EPOCH          = 2026-04-04T05:32:01.190976
MEAN_MOTION    = 15.81190468
ECCENTRICITY   = .00035917
INCLINATION    = 53.1606
RA_OF_ASC_NODE = 234.8543
ARG_OF_PERICENTER = 178.7528
MEAN_ANOMALY   = 181.3504

EPHEMERIS_TYPE = 0
CLASSIFICATION_TYPE = U
NORAD_CAT_ID   = 68325
ELEMENT_SET_NO = 999
REV_AT_EPOCH   = 201
BSTAR          = .2931041E-2
MEAN_MOTION_DOT = .631203E-2
MEAN_MOTION_DDOT = 0

CCSDS_OMM_VERS = 2.0
CREATION_DATE  = 
ORIGINATOR     = 

OBJECT_NAME    = STARLINK-37206
OBJECT_ID      = 2026-059F
CENTER_NAME    = EARTH
REF_FRAME      = TEME
TIME_SYSTEM    = UTC
MEAN_ELEMENT_THEORY = SGP/SGP4

EPOCH          = 2026-04-04T05:30:56.656224
MEAN_MOTION    = 15.81150525
ECCENTRICITY   = .00019478
INCLINATION    = 53.1602
RA_OF_ASC_NODE = 234.8493
ARG_OF_PERICENTER = 191.2912
MEAN_ANOMALY   = 168.8068

EPHEMERIS_TYPE = 0
CLASSIFICATION_TYPE = U
NORAD_CAT_ID   = 68326
ELEMENT_SET_NO = 999
REV_AT_EPOCH   = 201
BSTAR          = .24805634E-2
MEAN_MOTION_DOT = .526608E-2
MEAN_MOTION_DDOT = 0

CCSDS_OMM_VERS = 2.0
CREATION_DATE  = 
ORIGINATOR     = 

OBJECT_NAME    = STARLINK-37199
OBJECT_ID      = 2026-059G
CENTER_NAME    = EARTH
REF_FRAME      = TEME
TIME_SYSTEM    = UTC
MEAN_ELEMENT_THEORY = SGP/SGP4

EPOCH          = 2026-04-03T20:23:39.718464
MEAN_MOTION    = 15.80983910
ECCENTRICITY   = .00032004
INCLINATION    = 53.1590
RA_OF_ASC_NODE = 236.7452
ARG_OF_PERICENTER = 70.6200
MEAN_ANOMALY   = 289.5169

EPHEMERIS_TYPE = 0
CLASSIFICATION_TYPE = U
NORAD_CAT_ID   = 68327
ELEMENT_SET_NO = 999
REV_AT_EPOCH   = 195
BSTAR          = .18099134E-2
MEAN_MOTION_DOT = .374369E-2
MEAN_MOTION_DDOT = 0

CCSDS_OMM_VERS = 2.0
CREATION_DATE  = 
ORIGINATOR     = 

OBJECT_NAME    = STARLINK-36245
OBJECT_ID      = 2026-059H
CENTER_NAME    = EARTH
REF_FRAME      = TEME
TIME_SYSTEM    = UTC
MEAN_ELEMENT_THEORY = SGP/SGP4

EPOCH          = 2026-04-04T05:27:42.427296
MEAN_MOTION    = 15.81141526
ECCENTRICITY   = .00009863
INCLINATION    = 53.1600
RA_OF_ASC_NODE = 234.8342
ARG_OF_PERICENTER = 163.1089
MEAN_ANOMALY   = 196.9967

EPHEMERIS_TYPE = 0
CLASSIFICATION_TYPE = U
NORAD_CAT_ID   = 68328
ELEMENT_SET_NO = 999
REV_AT_EPOCH   = 201
BSTAR          = .23752222E-2
MEAN_MOTION_DOT = .502628E-2
MEAN_MOTION_DDOT = 0

CCSDS_OMM_VERS = 2.0
CREATION_DATE  = 
ORIGINATOR     = 

OBJECT_NAME    = STARLINK-37204
OBJECT_ID      = 2026-059J
CENTER_NAME    = EARTH
REF_FRAME      = TEME
TIME_SYSTEM    = UTC
MEAN_ELEMENT_THEORY = SGP/SGP4

EPOCH          = 2026-04-04T05:28:47.257536
MEAN_MOTION    = 15.81154111
ECCENTRICITY   = .00012443
INCLINATION    = 53.1594
RA_OF_ASC_NODE = 234.8395
ARG_OF_PERICENTER = 174.2408
MEAN_ANOMALY   = 185.8630

EPHEMERIS_TYPE = 0
CLASSIFICATION_TYPE = U
NORAD_CAT_ID   = 68329
ELEMENT_SET_NO = 999
REV_AT_EPOCH   = 201
BSTAR          = .25560907E-2
MEAN_MOTION_DOT = .543894E-2
MEAN_MOTION_DDOT = 0

