STARLINK-37139          
1 68317U 26057Z   26094.25002315 -.01585779  00000+0 -76962-2 0  9999
2 68317  97.2735 217.9033 0001532  57.8970 328.2556 15.85146937  3128
STARLINK-37113          
1 68318U 26057AA  26094.25002315 -.01601526  00000+0 -78228-2 0  9996
2 68318  97.2731 217.9074 0001673  56.3009 339.0271 15.85040761  3372
PROGRESS-MS 33          
1 68319U 26058A   26094.06925453  .00011847  00000+0  22464-3 0  9994
2 68319  51.6326 306.8840 0006251 269.7954  90.2318 15.48758130  1250
STARLINK-36987          
1 68321U 26059A   26093.79105896  .00524315  00000+0  24871-2 0  9990
2 68321  53.1593 237.0928 0001071  64.1086 296.0047 15.81002444  1944
STARLINK-37088          
1 68322U 26059B   26093.85278218  .00682732  00000+0  31722-2 0  9998
2 68322  53.1589 236.7654 0001629  36.6236 323.4898 15.81041274  1956
STARLINK-36983          
1 68323U 26059C   26093.79031120  .00549536  00000+0  26004-2 0  9992
2 68323  53.1587 237.0876 0001107  81.1300 278.9848 15.80989623  1949
STARLINK-37164          
1 68324U 26059D   26093.85203044  .00682125  00000+0  31667-2 0  9999
2 68324  53.1586 236.7602 0001278  82.1189 277.9979 15.81060191  3089
STARLINK-36309          
1 68325U 26059E   26094.23056934  .00631203  00000+0  29310-2 0  9990
2 68325  53.1606 234.8543 0003591 178.7528 181.3504 15.81190468  2010
STARLINK-37206          
1 68326U 26059F   26094.22982241  .00526608  00000+0  24806-2 0  9996
2 68326  53.1602 234.8493 0001947 191.2912 168.8068 15.81150525  2016
STARLINK-37199          
1 68327U 26059G   26093.84976526  .00374369  00000+0  18099-2 0  9995
2 68327  53.1590 236.7452 0003200  70.6200 289.5169 15.80983910  1959
STARLINK-36245          
1 68328U 26059H   26094.22757439  .00502628  00000+0  23752-2 0  9992
2 68328  53.1600 234.8342 0000986 163.1089 196.9967 15.81141526  2015
STARLINK-37204          
1 68329U 26059J   26094.22832474  .00543894  00000+0  25561-2 0  9996
2 68329  53.1594 234.8395 0001244 174.2408 185.8630 15.81154111  2010
